     2.100          NAVIGATION                              RINEX VERSION / TYPE
fic2rin                                 04/17/2015 00:18:18 PGM / RUN BY / DATE
                                                            END OF HEADER
22 15  4 16  8  0  0.0  .340255908668D-03  .420641299570D-11  .000000000000D+00
     .990000000000D+02  .449687500000D+02  .529414909399D-08  .111606527754D+01
     .245496630669D-05  .778760632966D-02  .129416584969D-04  .515370213318D+04
     .374400000000D+06 -.160187482834D-06 -.153296324059D+00  .465661287308D-07
     .923430477752D+00  .114875000000D+03 -.205915515210D+01 -.849249660371D-08
     .457161899771D-10  .100000000000D+01  .184000000000D+04  .000000000000D+00
     .485000000000D+01  .000000000000D+00 -.176951289177D-07  .990000000000D+02
     .367206000000D+06  .400000000000D+01
23 15  4 16  8  0  0.0 -.102217774838D-03 -.250111042988D-11  .000000000000D+00
     .730000000000D+02  .539062500000D+02  .520735976458D-08 -.113208047519D+01
     .272691249847D-05  .999528460670D-02  .346451997757D-05  .515362663078D+04
     .374400000000D+06  .221654772758D-06  .916339062823D+00 -.135973095894D-06
     .948827611896D+00  .304531250000D+03 -.269858697905D+01 -.863928843247D-08
     .171078554680D-09  .100000000000D+01  .184000000000D+04  .000000000000D+00
     .240000000000D+01  .000000000000D+00 -.200234353542D-07  .730000000000D+02
     .367206000000D+06  .400000000000D+01
24 15  4 16  8  0  0.0 -.467179343104D-04 -.568434188608D-12  .000000000000D+00
     .550000000000D+02 -.940000000000D+02  .469269546960D-08 -.187403495287D+01
    -.483915209770D-05  .322079472244D-02  .674836337566D-05  .515367627716D+04
     .374400000000D+06 -.115483999252D-06  .194376979269D+01 -.726431608200D-07
     .953603405981D+00  .247218750000D+03  .348567552381D+00 -.827213028172D-08
    -.473233997810D-09  .100000000000D+01  .184000000000D+04  .000000000000D+00
     .240000000000D+01  .000000000000D+00  .232830643654D-08  .550000000000D+02
     .367206000000D+06  .400000000000D+01
25 15  4 16  8  0  0.0 -.202073715627D-04 -.352429196937D-11  .000000000000D+00
     .700000000000D+02  .230312500000D+02  .368015329316D-08  .242236136206D+01
     .128895044327D-05  .451547000557D-02  .126156955957D-04  .515370429993D+04
     .374400000000D+06 -.372529029846D-08  .300567271541D+01 -.111758708954D-06
     .978399179853D+00  .145812500000D+03  .693478086054D+00 -.763567519938D-08
     .334656796942D-09  .100000000000D+01  .184000000000D+04  .000000000000D+00
     .340000000000D+01  .000000000000D+00  .512227416039D-08  .700000000000D+02
     .367206000000D+06  .400000000000D+01
26 15  4 16  8  0  0.0  .178292393684D-04  .761701812735D-11  .000000000000D+00
     .130000000000D+02  .373125000000D+02  .421553273672D-08  .595195641933D+00
     .192038714886D-05  .224209739827D-03  .123549252748D-04  .515355860519D+04
     .374400000000D+06 -.558793544769D-07  .300381610413D+01 -.242143869400D-07
     .960518874289D+00  .141625000000D+03  .113778646135D+01 -.788854287519D-08
     .284297556420D-09  .100000000000D+01  .184000000000D+04  .000000000000D+00
     .240000000000D+01  .630000000000D+02  .838190317154D-08  .130000000000D+02
     .367206000000D+06  .400000000000D+01
29 15  4 16  8  0  0.0  .604622066021D-03  .227373675443D-11  .000000000000D+00
     .105000000000D+03  .363437500000D+02  .472126808834D-08  .279833379685D+01
     .176392495632D-05  .136202515569D-02  .382959842682D-05  .515377353477D+04
     .374400000000D+06  .279396772385D-07 -.217668852875D+01  .130385160446D-06
     .972646601218D+00  .308343750000D+03 -.690793831799D+00 -.839392106908D-08
     .408588447920D-09  .100000000000D+01  .184000000000D+04  .000000000000D+00
     .340000000000D+01  .000000000000D+00 -.977888703346D-08  .105000000000D+03
     .367206000000D+06  .400000000000D+01
30 15  4 16  8  0  0.0 -.708037987351D-04  .397903932026D-11  .000000000000D+00
     .330000000000D+02 -.930000000000D+02  .466698011274D-08 -.249729649675D+01
    -.477768480778D-05  .122606439982D-02  .868178904057D-05  .515375083542D+04
     .374400000000D+06  .596046447754D-07  .203387760273D+01 -.130385160446D-07
     .956156502316D+00  .209625000000D+03  .284997802932D+01 -.827141596625D-08
    -.543594071446D-09  .100000000000D+01  .184000000000D+04  .000000000000D+00
     .240000000000D+01  .000000000000D+00  .325962901115D-08  .330000000000D+02
     .367206000000D+06  .400000000000D+01
31 15  4 16  8  0  0.0  .318465754390D-03 -.102318153949D-11  .000000000000D+00
     .750000000000D+02 -.833125000000D+02  .418624580251D-08 -.282144661660D+01
    -.430457293987D-05  .816313573159D-02  .815093517303D-05  .515376432800D+04
     .374400000000D+06 -.204890966415D-07  .199152577324D+01  .149011611938D-06
     .975296095077D+00  .231843750000D+03 -.520736442763D+00 -.793247327650D-08
    -.557880380814D-09  .100000000000D+01  .184000000000D+04  .000000000000D+00
     .240000000000D+01  .000000000000D+00 -.135041773319D-07  .750000000000D+02
     .367206000000D+06  .400000000000D+01
32 15  4 16  8  0  0.0 -.174819026142D-03  .943600753089D-11  .000000000000D+00
     .430000000000D+02  .747812500000D+02  .460304887832D-08 -.217279217080D+01
     .371038913727D-05  .112542720744D-01  .128764659166D-04  .515380054855D+04
     .374400000000D+06 -.109896063805D-06 -.534738529092D-01 -.206753611565D-06
     .947530550691D+00  .120500000000D+03  .340232247467D-01 -.808890836407D-08
     .294297972978D-09  .100000000000D+01  .184000000000D+04  .000000000000D+00
     .240000000000D+01  .000000000000D+00 -.372529029846D-08  .430000000000D+02
     .367206000000D+06  .400000000000D+01
13 15  4 16  7 59 44.0 -.106108840555D-03 -.341060513165D-11  .000000000000D+00
     .300000000000D+01  .480937500000D+02  .466590863954D-08 -.191210343577D+01
     .243261456490D-05  .527628068812D-02  .353902578354D-05  .515367805481D+04
     .374384000000D+06 -.912696123123D-07  .102186441435D+01  .147148966789D-06
     .974438362801D+00  .317281250000D+03  .207236234580D+01 -.838892086080D-08
     .717887045734D-10  .100000000000D+01  .184000000000D+04  .000000000000D+00
     .240000000000D+01  .000000000000D+00 -.116415321827D-07  .300000000000D+01
     .368706000000D+06  .400000000000D+01
25 15  4 16  7 59 44.0 -.202073715627D-04 -.352429196937D-11  .000000000000D+00
     .160000000000D+02  .230312500000D+02  .368015329316D-08  .242002705829D+01
     .129081308842D-05  .451546325348D-02  .126156955957D-04  .515370430756D+04
     .374384000000D+06 -.372529029846D-08  .300567284561D+01 -.111758708954D-06
     .978399181316D+00  .145812500000D+03  .693478658055D+00 -.763567519938D-08
     .335013954676D-09  .100000000000D+01  .184000000000D+04  .000000000000D+00
     .240000000000D+01  .000000000000D+00  .512227416039D-08  .160000000000D+02
     .369066000000D+06  .400000000000D+01
22 15  4 16  7 59 44.0  .340256839991D-03  .420641299570D-11  .000000000000D+00
     .100000000000D+01  .449687500000D+02  .529379193625D-08  .111373173009D+01
     .245496630669D-05  .778760493267D-02  .129416584969D-04  .515370212936D+04
     .374384000000D+06 -.160187482834D-06 -.153296177767D+00  .447034835815D-07
     .923430487992D+00  .114875000000D+03 -.205915528230D+01 -.849249660371D-08
     .453590322429D-10  .100000000000D+01  .184000000000D+04  .000000000000D+00
     .240000000000D+01  .000000000000D+00 -.176951289177D-07  .100000000000D+01
     .372546000000D+06  .400000000000D+01
29 15  4 16  7 59 44.0  .604621600360D-03  .227373675443D-11  .000000000000D+00
     .800000000000D+01  .363437500000D+02  .472126808834D-08  .279599903958D+01
     .176392495632D-05  .136202853173D-02  .382959842682D-05  .515377353287D+04
     .374384000000D+06  .298023223877D-07 -.217668839270D+01  .130385160446D-06
     .972646598292D+00  .308343750000D+03 -.690792703889D+00 -.839392106908D-08
     .408588447920D-09  .100000000000D+01  .184000000000D+04  .000000000000D+00
     .240000000000D+01  .000000000000D+00 -.977888703346D-08  .800000000000D+01
     .372876000000D+06  .400000000000D+01
 1 15  4 16  7 59 44.0 -.672321766615D-05  .454747350886D-12  .000000000000D+00
     .150000000000D+02 -.875625000000D+02  .475912680816D-08 -.204422637885D+01
    -.466220080853D-05  .407525198534D-02  .880472362041D-05  .515366794777D+04
     .374384000000D+06  .100582838058D-06 -.117626954986D+01 -.577419996262D-07
     .961785651627D+00  .209031250000D+03  .377465913233D+00 -.824962934446D-08
    -.479305679291D-09  .100000000000D+01  .184000000000D+04  .000000000000D+00
     .240000000000D+01  .000000000000D+00  .558793544769D-08  .150000000000D+02
     .373176000000D+06  .400000000000D+01
 1 15  4 16  9 59 44.0 -.671949237585D-05  .454747350886D-12  .000000000000D+00
     .160000000000D+02 -.785000000000D+02  .480377152494D-08 -.994544782028D+00
    -.413507223129D-05  .407535478007D-02  .818073749542D-05  .515366407776D+04
     .381584000000D+06  .707805156708D-07 -.117632909794D+01  .130385160446D-07
     .961782450762D+00  .221062500000D+03  .377972192608D+00 -.824427197845D-08
    -.436446751188D-09  .100000000000D+01  .184000000000D+04  .000000000000D+00
     .240000000000D+01  .000000000000D+00  .558793544769D-08  .160000000000D+02
     .374406000000D+06  .400000000000D+01
13 15  4 16  9 59 44.0 -.106133520603D-03 -.341060513165D-11  .000000000000D+00
     .280000000000D+02  .433437500000D+02  .481877214977D-08 -.862051556822D+00
     .236183404922D-05  .527614832390D-02  .353157520294D-05  .515367674446D+04
     .381584000000D+06 -.540167093277D-07  .102180272164D+01 -.465661287308D-07
     .974438623200D+00  .316312500000D+03  .207249112648D+01 -.854464163291D-08
     .160363822654D-09  .100000000000D+01  .184000000000D+04  .000000000000D+00
     .240000000000D+01  .000000000000D+00 -.116415321827D-07  .280000000000D+02
     .374406000000D+06  .400000000000D+01
